NORAD_CAT_ID,OBJECT_NAME,OBJECT_TYPE,EPOCH,MEAN_MOTION,ECCENTRICITY,INCLINATION,RA_OF_ASC_NODE,ARG_OF_PERICENTER,MEAN_ANOMALY,BSTAR,MEAN_MOTION_DOT,MEAN_MOTION_DDOT,TLE_LINE0,TLE_LINE1,TLE_LINE2,SEMIMAJOR_AXIS,PERIOD,APOGEE,PERIGEE,DECAYED
53729.0,STARLINK-4651,PAYLOAD,2022-09-24 14:00:01,15.7324432,0.0001506999999999,53.2141,176.6925,135.3815,184.5324,-7.882600000000001e-05,-0.00011689,0.0,0 STARLINK-4651,1 53729U 22107AF  22267.58335648 -.00011689  00000-0 -78826-4 0  9991,2 53729  53.2141 176.6925 0001507 135.3815 184.5324 15.73244320  3178,6727.769,91.531,350.648,348.62,0.0
53729.0,STARLINK-4651,PAYLOAD,2022-09-24 22:00:00,15.73252546,0.0001483,53.2144,175.044,133.9865,274.8378,-0.00057279,-0.00080425,0.0,0 STARLINK-4651,1 53729U 22107AF  22267.91667824 -.00080425  00000-0 -57279-3 0  9994,2 53729  53.2144 175.0440 0001483 133.9865 274.8378 15.73252546  1302,6727.745,91.53,350.608,348.61300000000006,0.0
53729.0,STARLINK-4651,PAYLOAD,2022-09-25 06:00:00,15.73154599,0.0001240999999999,53.2143,173.3956,137.4304,0.2356,-0.00015527,-0.0002230999999999,0.0,0 STARLINK-4651,1 53729U 22107AF  22268.25001157 -.00022310  00000-0 -15527-3 0  9992,2 53729  53.2143 173.3956 0001241 137.4304   0.2356 15.73154599  3288,6728.025,91.536,350.725,349.055,0.0
53729.0,STARLINK-4651,PAYLOAD,2022-09-25 14:00:01,15.73101177,0.0001484,53.2147,171.7441,141.028,85.5119,0.00077992,0.00109811,0.0,0 STARLINK-4651,1 53729U 22107AF  22268.58334491  .00109811  00000-0  77992-3 0  9992,2 53729  53.2147 171.7441 0001484 141.0280  85.5119 15.73101177  1304,6728.177,91.539,351.04,349.043,0.0
53729.0,STARLINK-4651,PAYLOAD,2022-09-25 22:00:01,15.73158922,0.000135,53.2147,170.0962,139.7592,175.5894,0.00044545,0.0006225,0.0,0 STARLINK-4651,1 53729U 22107AF  22268.91668981  .00062250  00000-0  44545-3 0  9996,2 53729  53.2147 170.0962 0001350 139.7592 175.5894 15.73158922  1306,6728.012,91.536,350.786,348.969,0.0
53729.0,STARLINK-4651,PAYLOAD,2022-09-26 10:00:00,15.73223128,0.0001334,53.2141,167.6215,141.4441,127.2182,9.805e-05,0.00013176,0.0,0 STARLINK-4651,1 53729U 22107AF  22269.41667824  .00013176  00000-0  98050-4 0  9991,2 53729  53.2141 167.6215 0001334 141.4441 127.2182 15.73223128  3462,6727.829000000002,91.532,350.592,348.797,0.0
53729.0,STARLINK-4651,PAYLOAD,2022-09-26 14:00:01,15.73211352,0.0001439,53.2139,166.796,147.6367,345.5193,0.00073951,0.00104517,0.0,0 STARLINK-4651,1 53729U 22107AF  22269.58334491  .00104517  00000-0  73951-3 0  9992,2 53729  53.2139 166.7960 0001439 147.6367 345.5193 15.73211352  1301,6727.863,91.533,350.696,348.76,0.0
53729.0,STARLINK-4651,PAYLOAD,2022-09-26 22:00:00,15.73303522,0.00014,53.2141,165.1478,141.6638,80.4573,-0.00033184,-0.00047139,0.0,0 STARLINK-4651,1 53729U 22107AF  22269.91667824 -.00047139  00000-0 -33184-3 0  9990,2 53729  53.2141 165.1478 0001400 141.6638  80.4573 15.73303522  3540,6727.6,91.527,350.407,348.523,0.0
53729.0,STARLINK-4651,PAYLOAD,2022-09-27 14:00:01,15.73219925,0.00016,53.2141,161.8466,140.4828,259.698,-6.3227e-05,-9.492e-05,0.0,0 STARLINK-4651,1 53729U 22107AF  22270.58334491 -.00009492  00000-0 -63227-4 0  9998,2 53729  53.2141 161.8466 0001600 140.4828 259.6980 15.73219925  1307,6727.8380000000025,91.532,350.78,348.62699999999984,0.0
53729.0,STARLINK-4651,PAYLOAD,2022-09-27 22:00:01,15.73236445,0.0001412,53.2139,160.1984,137.7223,351.4992,0.00029942,0.00041676,0.0,0 STARLINK-4651,1 53729U 22107AF  22270.91668981  .00041676  00000-0  29942-3 0  9992,2 53729  53.2139 160.1984 0001412 137.7223 351.4992 15.73236445  3706,6727.791,91.531,350.606,348.706,0.0
53729.0,STARLINK-4651,PAYLOAD,2022-09-28 14:00:01,15.73271986,0.0001575999999999,53.2135,156.8974,143.99200000000005,163.2037,-0.00025068,-0.00035762,0.0,0 STARLINK-4651,1 53729U 22107AF  22271.58334491 -.00035762  00000-0 -25068-3 0  9998,2 53729  53.2135 156.8974 0001576 143.9920 163.2037 15.73271986  1309,6727.69,91.529,350.615,348.495,0.0
53729.0,STARLINK-4651,PAYLOAD,2022-09-28 22:00:00,15.73264351,0.0001524,53.2134,155.2496,134.6624,261.493,-0.0015052,-0.00207322,0.0,0 STARLINK-4651,1 53729U 22107AF  22271.91667824 -.00207322  00000-0 -15052-2 0  9998,2 53729  53.2134 155.2496 0001524 134.6624 261.4930 15.73264351  3854,6727.712,91.529,350.602,348.551,0.0
53729.0,STARLINK-4651,PAYLOAD,2022-09-29 06:00:00,15.73110527,0.000171,53.2133,153.5999,126.5656,358.5031,7.813e-05,0.00010317,0.0,0 STARLINK-4651,1 53729U 22107AF  22272.25001157  .00010317  00000-0  78130-4 0  9999,2 53729  53.2133 153.5999 0001710 126.5656 358.5031 15.73110527  3916,6728.15,91.538,351.166,348.865,0.0
53729.0,STARLINK-4651,PAYLOAD,2022-09-29 14:00:01,15.73099278,0.0001829,53.2135,151.9486,133.5297,80.3644,0.00070795,0.00099491,0.0,0 STARLINK-4651,1 53729U 22107AF  22272.58334491  .00099491  00000-0  70795-3 0  9993,2 53729  53.2135 151.9486 0001829 133.5297  80.3644 15.73099278  1301,6728.182,91.539,351.278,348.81699999999995,0.0
53729.0,STARLINK-4651,PAYLOAD,2022-09-29 20:00:01,15.73175429,0.0001785,53.2138,150.7127,130.2116,60.3869,0.00025552,0.00035354,0.0,0 STARLINK-4651,1 53729U 22107AF  22272.83335648  .00035354  00000-0  25552-3 0  9995,2 53729  53.2138 150.7127 0001785 130.2116  60.3869 15.73175429  4008,6727.965,91.535,351.031,348.629,0.0
53729.0,STARLINK-4651,PAYLOAD,2022-09-29 22:00:00,15.73172997,0.0001730999999999,53.2135,150.3009,128.0779,174.6698,0.00029103,0.00040374,0.0,0 STARLINK-4651,1 53729U 22107AF  22272.91667824  .00040374  00000-0  29103-3 0  9992,2 53729  53.2135 150.3009 0001731 128.0779 174.6698 15.73172997  1307,6727.972,91.535,351.00199999999984,348.673,0.0
53729.0,STARLINK-4651,PAYLOAD,2022-09-30 14:00:01,15.73231783,0.000172,53.2132,146.9999,140.6515,339.9792,-0.00032808,-0.00046475,0.0,0 STARLINK-4651,1 53729U 22107AF  22273.58334491 -.00046475  00000-0 -32808-3 0  9993,2 53729  53.2132 146.9999 0001720 140.6515 339.9792 15.73231783  1309,6727.805,91.531,350.827,348.51199999999994,0.0
53729.0,STARLINK-4651,PAYLOAD,2022-09-30 22:00:00,15.73179426,0.0001583,53.2133,145.3523,134.4296,75.1553,0.00040623,0.00056728,0.0,0 STARLINK-4651,1 53729U 22107AF  22273.91667824  .00056728  00000-0  40623-3 0  9993,2 53729  53.2133 145.3523 0001583 134.4296  75.1553 15.73179426  1309,6727.954000000002,91.534,350.884,348.754,0.0
53729.0,STARLINK-4651,PAYLOAD,2022-10-01 14:00:01,15.73190889,0.0001781999999999,53.2138,142.0508,137.4765,250.0135,0.00043443,0.00060769,0.0,0 STARLINK-4651,1 53729U 22107AF  22274.58334491  .00060769  00000-0  43443-3 0  9991,2 53729  53.2138 142.0508 0001782 137.4765 250.0135 15.73190889  1302,6727.920999999999,91.534,350.985,348.587,0.0
53729.0,STARLINK-4651,PAYLOAD,2022-10-01 22:00:00,15.7323305,0.0001486,53.2138,140.4033,137.4039,339.0366,-0.00077179,-0.00107714,0.0,0 STARLINK-4651,1 53729U 22107AF  22274.91667824 -.00107714  00000-0 -77179-3 0  9994,2 53729  53.2138 140.4033 0001486 137.4039 339.0366 15.73233050  1304,6727.801,91.531,350.666,348.666,0.0
53729.0,STARLINK-4651,PAYLOAD,2022-10-02 06:00:00,15.73196974,0.0001359,53.2136,138.7532,143.2284,62.129,-0.00061474,-0.00086007,0.0,0 STARLINK-4651,1 53729U 22107AF  22275.25001157 -.00086007  00000-0 -61474-3 0  9995,2 53729  53.2136 138.7532 0001359 143.2284  62.1290 15.73196974  4386,6727.904,91.533,350.68300000000005,348.85400000000016,0.0
53729.0,STARLINK-4651,PAYLOAD,2022-10-02 14:00:01,15.73127135,0.0001602,53.2138,137.1024,146.096,148.1507,0.00074948,0.00105566,0.0,0 STARLINK-4651,1 53729U 22107AF  22275.58334491  .00105566  00000-0  74948-3 0  9991,2 53729  53.2138 137.1024 0001602 146.0960 148.1507 15.73127135  1308,6728.103,91.537,351.046,348.89,0.0
53729.0,STARLINK-4651,PAYLOAD,2022-10-02 22:00:00,15.73188536,0.0001398,53.2138,135.4551,142.4098,240.7121,0.00041655,0.00058218,0.0,0 STARLINK-4651,1 53729U 22107AF  22275.91667824  .00058218  00000-0  41655-3 0  9997,2 53729  53.2138 135.4551 0001398 142.4098 240.7121 15.73188536  1301,6727.928000000001,91.534,350.733,348.852,0.0
53729.0,STARLINK-4651,PAYLOAD,2022-10-03 06:00:00,15.7329514,0.0001383,53.2139,133.8048,142.3625,329.6924,-0.0003714,-0.00052631,0.0,0 STARLINK-4651,1 53729U 22107AF  22276.25001157 -.00052631  00000-0 -37140-3 0  9995,2 53729  53.2139 133.8048 0001383 142.3625 329.6924 15.73295140  4541,6727.624,91.528,350.4190000000001,348.559,0.0
53729.0,STARLINK-4651,PAYLOAD,2022-10-03 14:00:01,15.73234516,0.0001656,53.2144,132.1537,140.2651,60.8147,4.9636e-05,6.361e-05,0.0,0 STARLINK-4651,1 53729U 22107AF  22276.58334491  .00006361  00000-0  49636-4 0  9992,2 53729  53.2144 132.1537 0001656 140.2651  60.8147 15.73234516  1303,6727.797,91.531,350.776,348.548,0.0
53729.0,STARLINK-4651,PAYLOAD,2022-10-03 22:00:00,15.73241279,0.0001492,53.2144,130.5062,133.3094,156.7476,-0.00019306,-0.00027674,0.0,0 STARLINK-4651,1 53729U 22107AF  22276.91667824 -.00027674  00000-0 -19306-3 0  9990,2 53729  53.2144 130.5062 0001492 133.3094 156.7476 15.73241279  1304,6727.776999999999,91.531,350.646,348.639,0.0
53729.0,STARLINK-4651,PAYLOAD,2022-10-04 06:00:00,15.73276838,0.0001343,53.2142,128.8557,141.0184,237.9987,-0.0005611,-0.00078891,0.0,0 STARLINK-4651,1 53729U 22107AF  22277.25001157 -.00078891  00000-0 -56110-3 0  9990,2 53729  53.2142 128.8557 0001343 141.0184 237.9987 15.73276838  4695,6727.676,91.529,350.445,348.63800000000015,0.0
53729.0,STARLINK-4651,PAYLOAD,2022-10-04 14:00:01,15.73229198,0.0001556,53.2143,127.2051,143.5414,324.4628,-0.00030524,-0.00043293,0.0,0 STARLINK-4651,1 53729U 22107AF  22277.58334491 -.00043293  00000-0 -30524-3 0  9995,2 53729  53.2143 127.2051 0001556 143.5414 324.4628 15.73229198  1303,6727.812,91.531,350.724,348.63,0.0
53729.0,STARLINK-4651,PAYLOAD,2022-10-04 22:00:00,15.73139284,0.0001394,53.2142,125.5578,131.724,65.1996,-6.1751e-05,-9.254e-05,0.0,0 STARLINK-4651,1 53729U 22107AF  22277.91667824 -.00009254  00000-0 -61751-4 0  9997,2 53729  53.2142 125.5578 0001394 131.7240  65.1996 15.73139284  1306,6728.068,91.537,350.871,348.995,0.0
